[
  {
    "name": "Lagos Island",
    "zip": "101223"
  },
  {
    "name": "Onikan",
    "zip": "101231"
  },
  {
    "name": "Obalende",
    "zip": "101232"
  },
  {
    "name": "Okepopo",
    "zip": "101224"
  },
  {
    "name": "Lekki",
    "zip": "105103"
  },
  {
    "name": "Lafiaji",
    "zip": "101223"
  },
  {
    "name": "Itafaji",
    "zip": "101225"
  },
  {
    "name": "Ikoyi",
    "zip": "101233"
  },
  {
    "name": "Victoria Island",
    "zip": "101241"
  },
  {
    "name": "Ajah",
    "zip": "101245"
  },
  {
    "name": "Ikorodu",
    "zip": "104101"
  },
  {
    "name": "Yaba",
    "zip": "101212"
  },
  {
    "name": "Adeniyi Jones",
    "zip": "101226"
  },
  {
    "name": "Abule Ijesha",
    "zip": "101213"
  },
  {
    "name": "Apapa West",
    "zip": "101254"
  },
  {
    "name": "Apapa South",
    "zip": "101253"
  },
  {
    "name": "Apapa North",
    "zip": "101252"
  },
  {
    "name": "Atunrase Estate Gbabagada",
    "zip": "100235"
  },
  {
    "name": "Ayodela street",
    "zip": "100233"
  },
  {
    "name": "Allen",
    "zip": "100281"
  },
  {
    "name": "Bakara Faro",
    "zip": "100282"
  },
  {
    "name": "Anthony",
    "zip": "100282"
  },
  {
    "name": "Bungalow Estate",
    "zip": "100264"
  },
  {
    "name": "Balogun",
    "zip": "100267"
  },
  {
    "name": "Bode Thomas",
    "zip": "101211"
  },
  {
    "name": "Alakpere",
    "zip": "100244"
  },
  {
    "name": "Dopemu",
    "zip": "100273"
  },
  {
    "name": "Alimosho",
    "zip": "100275"
  },
  {
    "name": "Fedeyi",
    "zip": "100252"
  },
  {
    "name": "Festac Community i",
    "zip": "102312"
  },
  {
    "name": "Festac Community ii",
    "zip": "102313"
  },
  {
    "name": "Festac Community iii",
    "zip": "102314"
  },
  {
    "name": "Gbagbada",
    "zip": "100234"
  },
  {
    "name": "Idi Oro",
    "zip": "100254"
  },
  {
    "name": "Idimu",
    "zip": "100276"
  },
  {
    "name": "Ijesgatedo",
    "zip": "102221"
  },
  {
    "name": "IB Central",
    "zip": "102222"
  },
  {
    "name": "IB North",
    "zip": "102224"
  },
  {
    "name": "IB West",
    "zip": "102223"
  },
  {
    "name": "Iju Isaga",
    "zip": "100216"
  },
  {
    "name": "Ijora Iloye",
    "zip": "101255"
  },
  {
    "name": "Ikate",
    "zip": "100281"
  },
  {
    "name": "Ikosi",
    "zip": "100246"
  },
  {
    "name": "Oba Akran",
    "zip": "100282"
  },
  {
    "name": "Maryland",
    "zip": "100221"
  },
  {
    "name": "Magodo",
    "zip": "100248"
  },
  {
    "name": "Marina",
    "zip": "100221"
  },
  {
    "name": "Mende",
    "zip": "100211"
  },
  {
    "name": "Obanikoko",
    "zip": "100232"
  },
  {
    "name": "Ogudu",
    "zip": "100242"
  },
  {
    "name": "Ogba",
    "zip": "100218"
  },
  {
    "name": "Onike",
    "zip": "100213"
  },
  {
    "name": "Tejousho",
    "zip": "101211"
  },
  {
    "name": "Shomolu",
    "zip": "100233"
  },
  {
    "name": "Shogunle",
    "zip": "100261"
  },
  {
    "name": "Sangisha",
    "zip": "100248"
  },
  {
    "name": "SIO South",
    "zip": "102231"
  },
  {
    "name": "SIO North",
    "zip": "102232"
  },
  {
    "name": "Opebi",
    "zip": "100281"
  },
  {
    "name": "Ketu orisigun",
    "zip": "100245"
  },
  {
    "name": "Ketu",
    "zip": "100243"
  },
  {
    "name": "Ketu mile 12",
    "zip": "100247"
  },
  {
    "name": "Jibowu",
    "zip": "100252"
  },
  {
    "name": "Ikosi",
    "zip": "100246"
  },
  {
    "name": "Itire",
    "zip": "100246"
  },
  {
    "name": "Isheri Oke",
    "zip": "100214"
  },
  {
    "name": "Isheri Aleko",
    "zip": "101226"
  },
  {
    "name": "Ilaje",
    "zip": "102266"
  },
  {
    "name": "Ilupeju",
    "zip": "100252"
  },
  {
    "name": "Ipaja",
    "zip": "100278"
  },
  {
    "name": "Ikeja (Street 154)",
    "zip": "100271"
  },
  {
    "name": "Surulere",
    "zip": "101283"
  }
]